start=new Date('2022-02-17T00:00:00.000Z').valueOf();
sats=[{"TLE_LINE1":"1 46120U 20057D   22047.74264517 -.00001074  00000-0 -53241-4 0  9991","MEAN_MOTION_DDOT":"0.0000000000000","MEAN_MOTION_DOT":"-0.00001074","PERIAPSIS":"546.207","REV_AT_EPOCH":"8398","MEAN_MOTION":"15.06394295","RCS_SIZE":"LARGE","CENTER_NAME":"EARTH","EPHEMERIS_TYPE":"0","REF_FRAME":"TEME","OBJECT_TYPE":"PAYLOAD","EPOCH":"2022-02-16T17:49:24.542688","ELEMENT_SET_NO":"999","DECAY_DATE":null,"APOAPSIS":"548.255","MEAN_ANOMALY":"300.8135","CLASSIFICATION_TYPE":"U","PERIOD":"95.593","OBJECT_ID":"2020-057D","ARG_OF_PERICENTER":"59.2999","MEAN_ELEMENT_THEORY":"SGP4","RA_OF_ASC_NODE":"129.3408","SEMIMAJOR_AXIS":"6925.366","BSTAR":"-0.00005324100000","FILE":"3302660","OBJECT_NAME":"STARLINK-1601","NORAD_CAT_ID":"46120","ECCENTRICITY":"0.00014780","COUNTRY_CODE":"US","SITE":"AFETR","GP_ID":"196130486","TLE_LINE2":"2 46120  53.0537 129.3408 0001478  59.2999 300.8135 15.06394295 83980","LAUNCH_DATE":"2020-08-18","TIME_SYSTEM":"UTC","INCLINATION":"53.0537"},{"PERIOD":"95.592","CLASSIFICATION_TYPE":"U","MEAN_ANOMALY":"306.0292","ELEMENT_SET_NO":"999","APOAPSIS":"548.099","DECAY_DATE":null,"OBJECT_TYPE":"PAYLOAD","REF_FRAME":"TEME","EPOCH":"2022-02-16T15:28:45.147072","CENTER_NAME":"EARTH","EPHEMERIS_TYPE":"0","REV_AT_EPOCH":"8296","RCS_SIZE":"LARGE","MEAN_MOTION":"15.06397505","MEAN_MOTION_DDOT":"0.0000000000000","PERIAPSIS":"546.343","MEAN_MOTION_DOT":"0.00001463","TLE_LINE1":"1 46121U 20057E   22047.64496698  .00001463  00000-0  11712-3 0  9994","LAUNCH_DATE":"2020-08-18","TIME_SYSTEM":"UTC","TLE_LINE2":"2 46121  53.0546 109.7816 0001268  54.0815 306.0292 15.06397505 82969","INCLINATION":"53.0546","GP_ID":"196130237","NORAD_CAT_ID":"46121","ECCENTRICITY":"0.00012680","COUNTRY_CODE":"US","SITE":"AFETR","OBJECT_NAME":"STARLINK-1602","SEMIMAJOR_AXIS":"6925.356","FILE":"3302660","BSTAR":"0.00011712000000","OBJECT_ID":"2020-057E","ARG_OF_PERICENTER":"54.0815","RA_OF_ASC_NODE":"109.7816","MEAN_ELEMENT_THEORY":"SGP4"},{"TLE_LINE1":"1 46122U 20057F   22047.52149671  .00000940  00000-0  82037-4 0  9996","MEAN_MOTION_DOT":"0.00000940","PERIAPSIS":"546.216","MEAN_MOTION_DDOT":"0.0000000000000","RCS_SIZE":"LARGE","MEAN_MOTION":"15.06394219","REV_AT_EPOCH":"8448","EPHEMERIS_TYPE":"0","CENTER_NAME":"EARTH","EPOCH":"2022-02-16T12:30:57.315744","REF_FRAME":"TEME","OBJECT_TYPE":"PAYLOAD","DECAY_DATE":null,"APOAPSIS":"548.247","ELEMENT_SET_NO":"999","MEAN_ANOMALY":"288.9456","CLASSIFICATION_TYPE":"U","PERIOD":"95.593","MEAN_ELEMENT_THEORY":"SGP4","RA_OF_ASC_NODE":"90.3212","OBJECT_ID":"2020-057F","ARG_OF_PERICENTER":"71.1691","BSTAR":"0.00008203700000","FILE":"3301890","SEMIMAJOR_AXIS":"6925.366","OBJECT_NAME":"STARLINK-1604","SITE":"AFETR","COUNTRY_CODE":"US","NORAD_CAT_ID":"46122","ECCENTRICITY":"0.00014660","GP_ID":"196091141","INCLINATION":"53.0542","TLE_LINE2":"2 46122  53.0542  90.3212 0001466  71.1691 288.9456 15.06394219 84481","LAUNCH_DATE":"2020-08-18","TIME_SYSTEM":"UTC"},{"PERIAPSIS":"546.030","MEAN_MOTION_DOT":"-0.00001052","MEAN_MOTION_DDOT":"0.0000000000000","TLE_LINE1":"1 46123U 20057G   22047.83848681 -.00001052  00000-0 -51712-4 0  9991","EPHEMERIS_TYPE":"0","CENTER_NAME":"EARTH","RCS_SIZE":"LARGE","MEAN_MOTION":"15.06397175","REV_AT_EPOCH":"8455","APOAPSIS":"548.414","DECAY_DATE":null,"ELEMENT_SET_NO":"999","EPOCH":"2022-02-16T20:07:25.260384","OBJECT_TYPE":"PAYLOAD","REF_FRAME":"TEME","PERIOD":"95.592","CLASSIFICATION_TYPE":"U","MEAN_ANOMALY":"299.4905","BSTAR":"-0.00005171200000","FILE":"3302660","SEMIMAJOR_AXIS":"6925.357","RA_OF_ASC_NODE":"88.9077","MEAN_ELEMENT_THEORY":"SGP4","ARG_OF_PERICENTER":"60.6256","OBJECT_ID":"2020-057G","SITE":"AFETR","COUNTRY_CODE":"US","NORAD_CAT_ID":"46123","ECCENTRICITY":"0.00017210","OBJECT_NAME":"STARLINK-1605","INCLINATION":"53.0547","LAUNCH_DATE":"2020-08-18","TIME_SYSTEM":"UTC","TLE_LINE2":"2 46123  53.0547  88.9077 0001721  60.6256 299.4905 15.06397175 84551","GP_ID":"196129735"},{"OBJECT_NAME":"STARLINK-1614","NORAD_CAT_ID":"46124","ECCENTRICITY":"0.00015450","COUNTRY_CODE":"US","SITE":"AFETR","ARG_OF_PERICENTER":"70.9696","OBJECT_ID":"2020-057H","MEAN_ELEMENT_THEORY":"SGP4","RA_OF_ASC_NODE":"88.8865","SEMIMAJOR_AXIS":"6925.333","BSTAR":"0.00007765100000","FILE":"3302660","GP_ID":"196129987","TLE_LINE2":"2 46124  53.0538  88.8865 0001545  70.9696 289.1460 15.06405103 83284","TIME_SYSTEM":"UTC","LAUNCH_DATE":"2020-08-18","INCLINATION":"53.0538","REV_AT_EPOCH":"8328","MEAN_MOTION":"15.06405103","RCS_SIZE":"LARGE","CENTER_NAME":"EARTH","EPHEMERIS_TYPE":"0","TLE_LINE1":"1 46124U 20057H   22047.84584776  .00000875  00000-0  77651-4 0  9995","MEAN_MOTION_DDOT":"0.0000000000000","MEAN_MOTION_DOT":"0.00000875","PERIAPSIS":"546.128","MEAN_ANOMALY":"289.1460","CLASSIFICATION_TYPE":"U","PERIOD":"95.592","REF_FRAME":"TEME","OBJECT_TYPE":"PAYLOAD","EPOCH":"2022-02-16T20:18:01.246464","ELEMENT_SET_NO":"999","DECAY_DATE":null,"APOAPSIS":"548.268"},{"TLE_LINE1":"1 46125U 20057J   22047.69473602 -.00001002  00000-0 -48400-4 0  9999","MEAN_MOTION_DDOT":"0.0000000000000","MEAN_MOTION_DOT":"-0.00001002","PERIAPSIS":"546.230","REV_AT_EPOCH":"8395","MEAN_MOTION":"15.06392952","RCS_SIZE":"LARGE","CENTER_NAME":"EARTH","EPHEMERIS_TYPE":"0","REF_FRAME":"TEME","OBJECT_TYPE":"PAYLOAD","EPOCH":"2022-02-16T16:40:25.192128","ELEMENT_SET_NO":"999","DECAY_DATE":null,"APOAPSIS":"548.241","MEAN_ANOMALY":"293.1540","CLASSIFICATION_TYPE":"U","PERIOD":"95.593","ARG_OF_PERICENTER":"66.9602","OBJECT_ID":"2020-057J","MEAN_ELEMENT_THEORY":"SGP4","RA_OF_ASC_NODE":"129.5413","SEMIMAJOR_AXIS":"6925.370","FILE":"3302660","BSTAR":"-0.00004840000000","OBJECT_NAME":"STARLINK-1618","NORAD_CAT_ID":"46125","ECCENTRICITY":"0.00014520","COUNTRY_CODE":"US","SITE":"AFETR","GP_ID":"196130737","TLE_LINE2":"2 46125  53.0554 129.5413 0001452  66.9602 293.1540 15.06392952 83959","TIME_SYSTEM":"UTC","LAUNCH_DATE":"2020-08-18","INCLINATION":"53.0554"},{"MEAN_ANOMALY":"277.0725","PERIOD":"95.592","CLASSIFICATION_TYPE":"U","OBJECT_TYPE":"PAYLOAD","REF_FRAME":"TEME","EPOCH":"2022-02-16T12:52:10.831008","ELEMENT_SET_NO":"999","APOAPSIS":"548.092","DECAY_DATE":null,"REV_AT_EPOCH":"8267","RCS_SIZE":"LARGE","MEAN_MOTION":"15.06405879","CENTER_NAME":"EARTH","EPHEMERIS_TYPE":"0","TLE_LINE1":"1 46126U 20057K   22047.53623647  .00002956  00000-0  21719-3 0  9999","MEAN_MOTION_DDOT":"0.0000000000000","PERIAPSIS":"546.299","MEAN_MOTION_DOT":"0.00002956","GP_ID":"196090641","LAUNCH_DATE":"2020-08-18","TIME_SYSTEM":"UTC","TLE_LINE2":"2 46126  53.0579 130.2586 0001295  83.0412 277.0725 15.06405879 82678","INCLINATION":"53.0579","OBJECT_NAME":"STARLINK-1619","NORAD_CAT_ID":"46126","ECCENTRICITY":"0.00012950","SITE":"AFETR","COUNTRY_CODE":"US","ARG_OF_PERICENTER":"83.0412","OBJECT_ID":"2020-057K","RA_OF_ASC_NODE":"130.2586","MEAN_ELEMENT_THEORY":"SGP4","SEMIMAJOR_AXIS":"6925.331","FILE":"3301890","BSTAR":"0.00021719000000"},{"TLE_LINE2":"2 46127  53.0539 108.8150 0001322  68.3024 291.8106 15.06398461 82999","LAUNCH_DATE":"2020-08-18","TIME_SYSTEM":"UTC","INCLINATION":"53.0539","GP_ID":"196129236","NORAD_CAT_ID":"46127","ECCENTRICITY":"0.00013220","SITE":"AFETR","COUNTRY_CODE":"US","OBJECT_NAME":"STARLINK-1621","SEMIMAJOR_AXIS":"6925.353","FILE":"3302660","BSTAR":"0.00005226700000","OBJECT_ID":"2020-057L","ARG_OF_PERICENTER":"68.3024","MEAN_ELEMENT_THEORY":"SGP4","RA_OF_ASC_NODE":"108.8150","CLASSIFICATION_TYPE":"U","PERIOD":"95.592","MEAN_ANOMALY":"291.8106","ELEMENT_SET_NO":"999","DECAY_DATE":null,"APOAPSIS":"548.134","REF_FRAME":"TEME","OBJECT_TYPE":"PAYLOAD","EPOCH":"2022-02-16T20:36:36.406944","CENTER_NAME":"EARTH","EPHEMERIS_TYPE":"0","REV_AT_EPOCH":"8299","RCS_SIZE":"LARGE","MEAN_MOTION":"15.06398461","MEAN_MOTION_DDOT":"0.0000000000000","MEAN_MOTION_DOT":"0.00000497","PERIAPSIS":"546.303","TLE_LINE1":"1 46127U 20057L   22047.85875471  .00000497  00000-0  52267-4 0  9990"},{"INCLINATION":"53.0551","TLE_LINE2":"2 46128  53.0551  89.0006 0001532  66.9881 293.1269 15.06401593 83270","LAUNCH_DATE":"2020-08-18","TIME_SYSTEM":"UTC","GP_ID":"196130487","BSTAR":"0.00001568600000","FILE":"3302660","SEMIMAJOR_AXIS":"6925.344","MEAN_ELEMENT_THEORY":"SGP4","RA_OF_ASC_NODE":"89.0006","ARG_OF_PERICENTER":"66.9881","OBJECT_ID":"2020-057M","COUNTRY_CODE":"US","SITE":"AFETR","NORAD_CAT_ID":"46128","ECCENTRICITY":"0.00015320","OBJECT_NAME":"STARLINK-1622","DECAY_DATE":null,"APOAPSIS":"548.270","ELEMENT_SET_NO":"999","EPOCH":"2022-02-16T19:40:52.554144","REF_FRAME":"TEME","OBJECT_TYPE":"PAYLOAD","CLASSIFICATION_TYPE":"U","PERIOD":"95.592","MEAN_ANOMALY":"293.1269","MEAN_MOTION_DOT":"-0.00000048","PERIAPSIS":"546.148","MEAN_MOTION_DDOT":"0.0000000000000","TLE_LINE1":"1 46128U 20057M   22047.82005271 -.00000048  00000-0  15686-4 0  9998","EPHEMERIS_TYPE":"0","CENTER_NAME":"EARTH","RCS_SIZE":"LARGE","MEAN_MOTION":"15.06401593","REV_AT_EPOCH":"8327"},{"ELEMENT_SET_NO":"999","DECAY_DATE":null,"APOAPSIS":"548.255","REF_FRAME":"TEME","OBJECT_TYPE":"PAYLOAD","EPOCH":"2022-02-16T12:41:33.387360","CLASSIFICATION_TYPE":"U","PERIOD":"95.592","MEAN_ANOMALY":"297.1546","MEAN_MOTION_DDOT":"0.0000000000000","MEAN_MOTION_DOT":"0.00003452","PERIAPSIS":"546.128","TLE_LINE1":"1 46129U 20057N   22047.52885865  .00003452  00000-0  25048-3 0  9994","CENTER_NAME":"EARTH","EPHEMERIS_TYPE":"0","REV_AT_EPOCH":"8323","RCS_SIZE":"LARGE","MEAN_MOTION":"15.06407149","TLE_LINE2":"2 46129  53.0542  90.3072 0001536  62.9599 297.1546 15.06407149 83236","LAUNCH_DATE":"2020-08-18","TIME_SYSTEM":"UTC","INCLINATION":"53.0542","GP_ID":"196092390","SEMIMAJOR_AXIS":"6925.327","BSTAR":"0.00025048000000","FILE":"3301890","ARG_OF_PERICENTER":"62.9599","OBJECT_ID":"2020-057N","MEAN_ELEMENT_THEORY":"SGP4","RA_OF_ASC_NODE":"90.3072","NORAD_CAT_ID":"46129","ECCENTRICITY":"0.00015360","SITE":"AFETR","COUNTRY_CODE":"US","OBJECT_NAME":"STARLINK-1623"}];
